G21 ; millimeters
G90 ; absolute positioning
M3 S0
G0 X1.587 Y9.656 F4000
M3 S1000
G1 X1.867 Y9.621 F1800
G1 X2.146 Y9.589 F1800
G1 X2.422 Y9.561 F1800
G1 X2.697 Y9.536 F1800
G1 X2.971 Y9.514 F1800
G1 X3.244 Y9.494 F1800
G1 X3.516 Y9.476 F1800
G1 X3.788 Y9.459 F1800
G1 X4.059 Y9.443 F1800
G1 X4.330 Y9.427 F1800
G1 X4.601 Y9.411 F1800
G1 X4.873 Y9.394 F1800
G1 X5.145 Y9.376 F1800
G1 X5.418 Y9.357 F1800
G1 X5.692 Y9.336 F1800
G1 X5.968 Y9.312 F1800
G1 X6.244 Y9.285 F1800
G1 X6.522 Y9.257 F1800
G1 X6.801 Y9.229 F1800
G1 X7.079 Y9.203 F1800
G1 X7.356 Y9.180 F1800
G1 X7.633 Y9.162 F1800
G1 X7.907 Y9.150 F1800
G1 X8.180 Y9.146 F1800
G1 X8.449 Y9.152 F1800
G1 X8.715 Y9.169 F1800
G1 X8.977 Y9.198 F1800
G1 X9.234 Y9.242 F1800
G1 X9.487 Y9.303 F1800
G1 X9.733 Y9.380 F1800
G1 X9.974 Y9.477 F1800
G1 X10.208 Y9.594 F1800
G1 X10.434 Y9.721 F1800
G1 X10.649 Y9.786 F1800
G1 X10.855 Y9.730 F1800
G1 X11.061 Y9.581 F1800
G1 X11.278 Y9.394 F1800
G1 X11.513 Y9.227 F1800
G1 X11.769 Y9.117 F1800
G1 X12.037 Y9.046 F1800
G1 X12.309 Y8.996 F1800
G1 X12.582 Y8.963 F1800
G1 X12.858 Y8.943 F1800
G1 X13.135 Y8.935 F1800
G1 X13.413 Y8.936 F1800
G1 X13.691 Y8.941 F1800
G1 X13.970 Y8.949 F1800
G1 X14.249 Y8.957 F1800
G1 X14.526 Y8.962 F1800
G1 X14.804 Y8.965 F1800
G1 X15.081 Y8.966 F1800
G1 X15.357 Y8.965 F1800
G1 X15.634 Y8.963 F1800
G1 X15.910 Y8.960 F1800
G1 X16.186 Y8.957 F1800
G1 X16.462 Y8.954 F1800
G1 X16.739 Y8.951 F1800
G1 X17.015 Y8.949 F1800
G1 X17.292 Y8.948 F1800
G1 X17.569 Y8.949 F1800
G1 X17.847 Y8.952 F1800
G1 X18.125 Y8.957 F1800
G1 X18.404 Y8.965 F1800
M3 S0
G0 X10.331 Y2.102 F4000
M3 S1000
G1 X10.304 Y2.361 F1800
G1 X10.287 Y2.618 F1800
G1 X10.277 Y2.876 F1800
G1 X10.274 Y3.132 F1800
G1 X10.278 Y3.388 F1800
G1 X10.287 Y3.644 F1800
G1 X10.300 Y3.900 F1800
G1 X10.316 Y4.155 F1800
G1 X10.335 Y4.410 F1800
G1 X10.355 Y4.664 F1800
G1 X10.376 Y4.919 F1800
G1 X10.396 Y5.173 F1800
G1 X10.414 Y5.428 F1800
G1 X10.431 Y5.682 F1800
G1 X10.444 Y5.937 F1800
G1 X10.452 Y6.191 F1800
G1 X10.456 Y6.446 F1800
G1 X10.451 Y6.700 F1800
G1 X10.434 Y6.954 F1800
G1 X10.404 Y7.207 F1800
G1 X10.357 Y7.458 F1800
G1 X10.299 Y7.707 F1800
G1 X10.238 Y7.955 F1800
G1 X10.179 Y8.202 F1800
G1 X10.129 Y8.447 F1800
G1 X10.095 Y8.691 F1800
G1 X10.080 Y8.934 F1800
G1 X10.091 Y9.175 F1800
G1 X10.130 Y9.415 F1800
G1 X10.189 Y9.654 F1800
G1 X10.260 Y9.893 F1800
G1 X10.333 Y10.132 F1800
G1 X10.398 Y10.373 F1800
G1 X10.455 Y10.616 F1800
G1 X10.504 Y10.860 F1800
G1 X10.546 Y11.105 F1800
G1 X10.581 Y11.352 F1800
G1 X10.610 Y11.600 F1800
G1 X10.633 Y11.849 F1800
G1 X10.650 Y12.100 F1800
G1 X10.663 Y12.353 F1800
G1 X10.671 Y12.606 F1800
G1 X10.677 Y12.861 F1800
G1 X10.680 Y13.116 F1800
G1 X10.682 Y13.372 F1800
G1 X10.684 Y13.628 F1800
G1 X10.688 Y13.884 F1800
G1 X10.692 Y14.140 F1800
G1 X10.700 Y14.396 F1800
G1 X10.709 Y14.652 F1800
G1 X10.721 Y14.907 F1800
G1 X10.733 Y15.162 F1800
G1 X10.746 Y15.418 F1800
G1 X10.760 Y15.673 F1800
G1 X10.772 Y15.928 F1800
G1 X10.784 Y16.183 F1800
G1 X10.794 Y16.439 F1800
G1 X10.802 Y16.694 F1800
G1 X10.807 Y16.950 F1800
G1 X10.810 Y17.206 F1800
G1 X10.808 Y17.462 F1800
G1 X10.802 Y17.719 F1800
G1 X10.791 Y17.975 F1800
M3 S0
