G21 ; millimeters
G90 ; absolute positioning
M3 S0
G0 X1.735 Y9.622 F4000
M3 S1000
G1 X1.922 Y9.605 F1800
G1 X2.108 Y9.590 F1800
G1 X2.295 Y9.574 F1800
G1 X2.482 Y9.559 F1800
G1 X2.669 Y9.545 F1800
G1 X2.856 Y9.530 F1800
G1 X3.043 Y9.516 F1800
G1 X3.231 Y9.503 F1800
G1 X3.418 Y9.489 F1800
G1 X3.606 Y9.476 F1800
G1 X3.794 Y9.463 F1800
G1 X3.982 Y9.450 F1800
G1 X4.170 Y9.437 F1800
G1 X4.357 Y9.424 F1800
G1 X4.545 Y9.412 F1800
G1 X4.733 Y9.399 F1800
G1 X4.921 Y9.386 F1800
G1 X5.109 Y9.373 F1800
G1 X5.298 Y9.360 F1800
G1 X5.486 Y9.347 F1800
G1 X5.674 Y9.334 F1800
G1 X5.861 Y9.321 F1800
G1 X6.049 Y9.307 F1800
G1 X6.237 Y9.293 F1800
G1 X6.425 Y9.279 F1800
G1 X6.613 Y9.264 F1800
G1 X6.801 Y9.249 F1800
G1 X6.988 Y9.234 F1800
G1 X7.176 Y9.220 F1800
G1 X7.363 Y9.205 F1800
G1 X7.551 Y9.190 F1800
G1 X7.739 Y9.176 F1800
G1 X7.926 Y9.162 F1800
G1 X8.114 Y9.149 F1800
G1 X8.301 Y9.136 F1800
G1 X8.489 Y9.124 F1800
G1 X8.677 Y9.113 F1800
G1 X8.862 Y9.110 F1800
G1 X9.042 Y9.129 F1800
G1 X9.215 Y9.178 F1800
G1 X9.382 Y9.255 F1800
G1 X9.548 Y9.344 F1800
G1 X9.718 Y9.433 F1800
G1 X9.892 Y9.516 F1800
G1 X10.067 Y9.593 F1800
G1 X10.242 Y9.663 F1800
G1 X10.413 Y9.728 F1800
G1 X10.579 Y9.787 F1800
G1 X10.735 Y9.835 F1800
G1 X10.863 Y9.832 F1800
G1 X10.938 Y9.715 F1800
G1 X10.966 Y9.482 F1800
G1 X11.059 Y9.313 F1800
G1 X11.254 Y9.288 F1800
G1 X11.382 Y9.170 F1800
G1 X11.438 Y8.978 F1800
G1 X11.458 Y8.798 F1800
G1 X11.491 Y8.738 F1800
G1 X11.603 Y8.814 F1800
G1 X11.779 Y8.838 F1800
G1 X11.961 Y8.850 F1800
G1 X12.144 Y8.856 F1800
G1 X12.329 Y8.857 F1800
G1 X12.515 Y8.854 F1800
G1 X12.702 Y8.847 F1800
G1 X12.889 Y8.836 F1800
G1 X13.077 Y8.824 F1800
G1 X13.265 Y8.809 F1800
G1 X13.454 Y8.792 F1800
G1 X13.643 Y8.775 F1800
G1 X13.832 Y8.758 F1800
G1 X14.021 Y8.741 F1800
G1 X14.210 Y8.725 F1800
G1 X14.398 Y8.709 F1800
G1 X14.587 Y8.694 F1800
G1 X14.775 Y8.680 F1800
G1 X14.963 Y8.666 F1800
G1 X15.151 Y8.653 F1800
G1 X15.339 Y8.640 F1800
G1 X15.527 Y8.627 F1800
G1 X15.714 Y8.615 F1800
G1 X15.902 Y8.602 F1800
G1 X16.089 Y8.590 F1800
G1 X16.277 Y8.577 F1800
G1 X16.465 Y8.565 F1800
G1 X16.652 Y8.552 F1800
G1 X16.840 Y8.539 F1800
G1 X17.028 Y8.526 F1800
G1 X17.215 Y8.512 F1800
G1 X17.403 Y8.498 F1800
G1 X17.591 Y8.483 F1800
G1 X17.779 Y8.468 F1800
G1 X17.968 Y8.452 F1800
G1 X18.156 Y8.435 F1800
G1 X18.345 Y8.417 F1800
M3 S0
G0 X10.318 Y2.151 F4000
M3 S1000
G1 X10.312 Y2.323 F1800
G1 X10.308 Y2.495 F1800
G1 X10.308 Y2.667 F1800
G1 X10.310 Y2.839 F1800
G1 X10.315 Y3.012 F1800
G1 X10.321 Y3.184 F1800
G1 X10.329 Y3.357 F1800
G1 X10.338 Y3.530 F1800
G1 X10.348 Y3.702 F1800
G1 X10.358 Y3.875 F1800
G1 X10.367 Y4.048 F1800
G1 X10.377 Y4.220 F1800
G1 X10.385 Y4.392 F1800
G1 X10.393 Y4.564 F1800
G1 X10.400 Y4.736 F1800
G1 X10.407 Y4.908 F1800
G1 X10.413 Y5.080 F1800
G1 X10.419 Y5.252 F1800
G1 X10.425 Y5.424 F1800
G1 X10.431 Y5.596 F1800
G1 X10.437 Y5.769 F1800
G1 X10.443 Y5.942 F1800
G1 X10.450 Y6.115 F1800
G1 X10.457 Y6.289 F1800
G1 X10.464 Y6.463 F1800
G1 X10.472 Y6.637 F1800
G1 X10.477 Y6.811 F1800
G1 X10.480 Y6.983 F1800
G1 X10.479 Y7.154 F1800
G1 X10.473 Y7.322 F1800
G1 X10.461 Y7.487 F1800
G1 X10.439 Y7.648 F1800
G1 X10.406 Y7.806 F1800
G1 X10.359 Y7.960 F1800
G1 X10.294 Y8.110 F1800
G1 X10.209 Y8.256 F1800
G1 X10.104 Y8.398 F1800
G1 X9.992 Y8.535 F1800
G1 X9.891 Y8.667 F1800
G1 X9.817 Y8.794 F1800
G1 X9.786 Y8.918 F1800
G1 X9.814 Y9.040 F1800
G1 X9.904 Y9.164 F1800
G1 X10.019 Y9.294 F1800
G1 X10.116 Y9.437 F1800
G1 X10.165 Y9.594 F1800
G1 X10.187 Y9.760 F1800
G1 X10.210 Y9.927 F1800
G1 X10.255 Y10.089 F1800
G1 X10.317 Y10.246 F1800
G1 X10.390 Y10.401 F1800
G1 X10.466 Y10.556 F1800
G1 X10.537 Y10.711 F1800
G1 X10.596 Y10.871 F1800
G1 X10.637 Y11.034 F1800
G1 X10.663 Y11.202 F1800
G1 X10.677 Y11.372 F1800
G1 X10.682 Y11.545 F1800
G1 X10.682 Y11.718 F1800
G1 X10.681 Y11.893 F1800
G1 X10.681 Y12.066 F1800
G1 X10.682 Y12.240 F1800
G1 X10.684 Y12.413 F1800
G1 X10.688 Y12.585 F1800
G1 X10.692 Y12.758 F1800
G1 X10.697 Y12.930 F1800
G1 X10.703 Y13.102 F1800
G1 X10.709 Y13.274 F1800
G1 X10.716 Y13.446 F1800
G1 X10.724 Y13.618 F1800
G1 X10.731 Y13.790 F1800
G1 X10.739 Y13.962 F1800
G1 X10.747 Y14.134 F1800
G1 X10.755 Y14.306 F1800
G1 X10.763 Y14.478 F1800
G1 X10.770 Y14.651 F1800
G1 X10.778 Y14.823 F1800
G1 X10.786 Y14.995 F1800
G1 X10.793 Y15.168 F1800
G1 X10.801 Y15.340 F1800
G1 X10.808 Y15.513 F1800
G1 X10.815 Y15.685 F1800
G1 X10.822 Y15.858 F1800
G1 X10.829 Y16.030 F1800
G1 X10.836 Y16.203 F1800
G1 X10.842 Y16.375 F1800
G1 X10.848 Y16.548 F1800
G1 X10.853 Y16.720 F1800
G1 X10.859 Y16.892 F1800
G1 X10.864 Y17.065 F1800
G1 X10.868 Y17.237 F1800
G1 X10.872 Y17.409 F1800
G1 X10.876 Y17.581 F1800
G1 X10.879 Y17.753 F1800
G1 X10.882 Y17.925 F1800
M3 S0
